NORAD_CAT_ID,OBJECT_NAME,OBJECT_TYPE,EPOCH,MEAN_MOTION,ECCENTRICITY,INCLINATION,RA_OF_ASC_NODE,ARG_OF_PERICENTER,MEAN_ANOMALY,BSTAR,MEAN_MOTION_DOT,MEAN_MOTION_DDOT,TLE_LINE0,TLE_LINE1,TLE_LINE2,SEMIMAJOR_AXIS,PERIOD,APOGEE,PERIGEE,DECAYED
51746.0,STARLINK-3502,PAYLOAD,2023-11-09 00:02:31,15.08864265,0.0001377,53.2149,172.5072,98.9201,261.1947,0.001705,0.00026969,0.0,0 STARLINK-3502,1 51746U 22016AJ  23313.00175840  .00026969  00000-0  17050-2 0  9998,2 51746  53.2149 172.5072 0001377  98.9201 261.1947 15.08864265 96246,6917.806,95.436,540.624,538.719,0.0
51746.0,STARLINK-3502,PAYLOAD,2023-11-09 14:20:59,15.08884699,0.0001396,53.214,169.8325,99.3516,260.7634,0.0013114,0.0002067,0.0,0 STARLINK-3502,1 51746U 22016AJ  23313.59790535  .00020670  00000-0  13114-2 0  9996,2 51746  53.2140 169.8325 0001396  99.3516 260.7634 15.08884699 95219,6917.744,95.435,540.574,538.643,0.0
51746.0,STARLINK-3502,PAYLOAD,2023-11-09 22:17:53,15.08889789,0.0001422,53.2148,168.344,91.1696,268.946,0.001197,0.0001884,0.0,0 STARLINK-3502,1 51746U 22016AJ  23313.92909699  .00018840  00000-0  11970-2 0  9990,2 51746  53.2148 168.3440 0001422  91.1696 268.9460 15.08889789 95265,6917.728,95.434,540.577,538.61,0.0
51746.0,STARLINK-3502,PAYLOAD,2023-11-09 23:53:16,15.08890985,0.0001412,53.2148,168.0469,90.5894,269.526,0.0011807,0.00018579,0.0,0 STARLINK-3502,1 51746U 22016AJ  23313.99533496  .00018579  00000-0  11807-2 0  9993,2 51746  53.2148 168.0469 0001412  90.5894 269.5260 15.08890985 96395,6917.725,95.434,540.566,538.613,0.0
51746.0,STARLINK-3502,PAYLOAD,2023-11-10 07:50:12,15.08873121,0.0001281,53.2151,166.5551,118.855,241.257,0.00039444,6.001e-05,0.0,0 STARLINK-3502,1 51746U 22016AJ  23314.32652942  .00006001  00000-0  39444-3 0  9994,2 51746  53.2151 166.5551 0001281 118.8550 241.2570 15.08873121 96441,6917.779,95.435,540.53,538.758,0.0
51746.0,STARLINK-3502,PAYLOAD,2023-11-10 20:33:17,15.08857448,0.0001396,53.215,164.1803,102.5748,257.54,-9.1358e-05,-1.742e-05,0.0,0 STARLINK-3502,1 51746U 22016AJ  23314.85644815 -.00001742  00000-0 -91358-4 0  9994,2 51746  53.2150 164.1803 0001396 102.5748 257.5400 15.08857448 96525,6917.827,95.436,540.658,538.726,0.0
51746.0,STARLINK-3502,PAYLOAD,2023-11-10 23:44:03,15.08855978,0.0001468,53.216,163.5832,105.8585,254.2569,-0.0001219,-2.228e-05,0.0,0 STARLINK-3502,1 51746U 22016AJ  23314.98892770 -.00002228  00000-0 -12190-3 0  9999,2 51746  53.2160 163.5832 0001468 105.8585 254.2569 15.08855978 95420,6917.832,95.437,540.712,538.681,0.0
51746.0,STARLINK-3502,PAYLOAD,2023-11-11 20:24:04,15.0885395,0.0001489,53.2169,159.7162,109.6148,250.5005,-0.00018676,-3.26e-05,0.0,0 STARLINK-3502,1 51746U 22016AJ  23315.85005146 -.00003260  00000-0 -18676-3 0  9991,2 51746  53.2169 159.7162 0001489 109.6148 250.5005 15.08853950 96672,6917.838,95.437,540.733,538.673,0.0
51746.0,STARLINK-3502,PAYLOAD,2023-11-12 20:14:51,15.08845026,0.000116,53.2158,155.2572,95.7765,264.336,7.5919e-05,9.21e-06,0.0,0 STARLINK-3502,1 51746U 22016AJ  23316.84364657  .00000921  00000-0  75919-4 0  9999,2 51746  53.2158 155.2572 0001160  95.7765 264.3360 15.08845026 95707,6917.865,95.437,540.532,538.928,0.0
51746.0,STARLINK-3502,PAYLOAD,2023-11-13 05:47:09,15.08849043,0.0001113,53.2158,153.4732,89.8366,270.2754,5.5798e-06,-1.99e-06,0.0,0 STARLINK-3502,1 51746U 22016AJ  23317.24108436 -.00000199  00000-0  55798-5 0  9997,2 51746  53.2158 153.4732 0001113  89.8366 270.2754 15.08849043 96880,6917.853,95.437,540.488,538.948,0.0
51746.0,STARLINK-3502,PAYLOAD,2023-11-13 13:44:06,15.08836141,0.0001268,53.2167,151.99,96.2006,263.913,6.9031e-05,8.11e-06,0.0,0 STARLINK-3502,1 51746U 22016AJ  23317.57229290  .00000811  00000-0  69031-4 0  9999,2 51746  53.2167 151.9900 0001268  96.2006 263.9130 15.08836141 95818,6917.892,95.438,540.634,538.88,0.0
51746.0,STARLINK-3502,PAYLOAD,2023-11-13 20:05:38,15.08837053,0.0001271,53.2167,150.8003,95.6614,264.4523,6.9994e-05,8.26e-06,0.0,0 STARLINK-3502,1 51746U 22016AJ  23317.83725276  .00000826  00000-0  69994-4 0  9997,2 51746  53.2167 150.8003 0001271  95.6614 264.4523 15.08837053 96975,6917.889,95.438,540.634,538.875,0.0
51746.0,STARLINK-3502,PAYLOAD,2023-11-14 05:37:57,15.08837693,0.0001291,53.2168,149.0162,94.9539,265.16,4.815e-05,4.78e-06,0.0,0 STARLINK-3502,1 51746U 22016AJ  23318.23469324  .00000478  00000-0  48150-4 0  9995,2 51746  53.2168 149.0162 0001291  94.9539 265.1600 15.08837693 95919,6917.887,95.438,540.646,538.859,0.0
51746.0,STARLINK-3502,PAYLOAD,2023-11-14 21:31:48,15.08840886,0.0001311,53.2165,146.0418,93.7945,266.3197,5.4072e-05,5.73e-06,0.0,0 STARLINK-3502,1 51746U 22016AJ  23318.89709103  .00000573  00000-0  54072-4 0  9995,2 51746  53.2165 146.0418 0001311  93.7945 266.3197 15.08840886 96012,6917.878,95.437,540.65,538.836,0.0
51746.0,STARLINK-3502,PAYLOAD,2023-11-15 11:50:17,15.08837208,0.0001296,53.2139,143.3637,89.2941,270.82,7.0235e-05,8.3e-06,0.0,0 STARLINK-3502,1 51746U 22016AJ  23319.49325289  .00000830  00000-0  70235-4 0  9996,2 51746  53.2139 143.3637 0001296  89.2941 270.8200 15.08837208 96103,6917.889,95.438,540.65,538.857,0.0
51746.0,STARLINK-3502,PAYLOAD,2023-11-15 21:22:35,15.08838745,0.0001244,53.2133,141.5786,86.4579,273.6555,5.1703e-05,5.35e-06,0.0,0 STARLINK-3502,1 51746U 22016AJ  23319.89069311  .00000535  00000-0  51703-4 0  9992,2 51746  53.2133 141.5786 0001244  86.4579 273.6555 15.08838745 96168,6917.884,95.438,540.61,538.889,0.0
51746.0,STARLINK-3502,PAYLOAD,2023-11-17 11:31:51,15.08840055,0.0001246,53.216,134.4434,87.8115,272.302,3.2413e-05,2.28e-06,0.0,0 STARLINK-3502,1 51746U 22016AJ  23321.48045364  .00000228  00000-0  32413-4 0  9998,2 51746  53.2160 134.4434 0001246  87.8115 272.3020 15.08840055 97523,6917.88,95.438,540.607,538.883,0.0
51746.0,STARLINK-3502,PAYLOAD,2023-11-17 17:53:23,15.08839066,0.0001255,53.2144,133.2523,93.1445,266.969,5.2509e-05,5.48e-06,0.0,0 STARLINK-3502,1 51746U 22016AJ  23321.74541414  .00000548  00000-0  52509-4 0  9997,2 51746  53.2144 133.2523 0001255  93.1445 266.9690 15.08839066 96449,6917.883,95.438,540.616,538.88,0.0
51746.0,STARLINK-3502,PAYLOAD,2023-11-18 05:01:05,15.0884145,0.0001279,53.2158,131.1722,88.1183,271.9955,4.0783e-05,3.61e-06,0.0,0 STARLINK-3502,1 51746U 22016AJ  23322.20909256  .00000361  00000-0  40783-4 0  9995,2 51746  53.2158 131.1722 0001279  88.1183 271.9955 15.08841450 96519,6917.876,95.437,540.626,538.856,0.0
51746.0,STARLINK-3502,PAYLOAD,2023-11-18 17:44:10,15.08842304,0.0001262,53.2157,128.7929,88.8074,271.3063,4.8287e-05,4.81e-06,0.0,0 STARLINK-3502,1 51746U 22016AJ  23322.73901128  .00000481  00000-0  48287-4 0  9993,2 51746  53.2157 128.7929 0001262  88.8074 271.3063 15.08842304 97713,6917.873,95.437,540.611,538.865,0.0
51746.0,STARLINK-3502,PAYLOAD,2023-11-18 20:54:56,15.08842032,0.0001291,53.2153,128.1977,89.4152,270.6988,5.7845e-05,6.33e-06,0.0,0 STARLINK-3502,1 51746U 22016AJ  23322.87149129  .00000633  00000-0  57845-4 0  9992,2 51746  53.2153 128.1977 0001291  89.4152 270.6988 15.08842032 96616,6917.874,95.437,540.632,538.846,0.0
51746.0,STARLINK-3502,PAYLOAD,2023-11-19 14:24:11,15.08843678,0.0001289,53.2154,124.9265,89.1198,270.9942,6.2237e-05,7.03e-06,0.0,0 STARLINK-3502,1 51746U 22016AJ  23323.60012923  .00000703  00000-0  62237-4 0  9994,2 51746  53.2154 124.9265 0001289  89.1198 270.9942 15.08843678 96727,6917.869,95.437,540.626,538.842,0.0
51746.0,STARLINK-3502,PAYLOAD,2023-11-19 20:45:43,15.08844649,0.0001301,53.2157,123.7371,89.5365,270.5776,6.411e-05,7.33e-06,0.0,0 STARLINK-3502,1 51746U 22016AJ  23323.86508742  .00000733  00000-0  64110-4 0  9996,2 51746  53.2157 123.7371 0001301  89.5365 270.5776 15.08844649 96764,6917.866,95.437,540.631,538.831,0.0
51746.0,STARLINK-3502,PAYLOAD,2023-11-20 14:14:58,15.08837032,0.0001325,53.2149,120.4659,90.4266,269.6878,-1.6392e-05,-5.49e-06,0.0,0 STARLINK-3502,1 51746U 22016AJ  23324.59373500 -.00000549  00000-0 -16392-4 0  9995,2 51746  53.2149 120.4659 0001325  90.4266 269.6878 15.08837032 96877,6917.889,95.438,540.671,538.838,0.0
51746.0,STARLINK-3502,PAYLOAD,2023-11-20 17:25:44,15.08838268,0.0001299,53.2154,119.8713,89.4491,270.665,-4.7087e-06,-3.63e-06,0.0,0 STARLINK-3502,1 51746U 22016AJ  23324.72621383 -.00000363  00000-0 -47087-5 0  9995,2 51746  53.2154 119.8713 0001299  89.4491 270.6650 15.08838268 98014,6917.886,95.438,540.649,538.852,0.0
51746.0,STARLINK-3502,PAYLOAD,2023-11-20 20:36:31,15.08839756,0.0001262,53.2156,119.2764,88.2373,271.8763,2.8139e-06,-2.43e-06,0.0,0 STARLINK-3502,1 51746U 22016AJ  23324.85869245 -.00000243  00000-0  28139-5 0  9993,2 51746  53.2156 119.2764 0001262  88.2373 271.8763 15.08839756 96910,6917.881,95.438,540.619,538.873,0.0
51746.0,STARLINK-3502,PAYLOAD,2023-11-21 10:54:59,15.08839676,0.0001249,53.2157,116.6,87.616,272.4975,-4.2352e-06,-3.55e-06,0.0,0 STARLINK-3502,1 51746U 22016AJ  23325.45485325 -.00000355  00000-0 -42352-5 0  9991,2 51746  53.2157 116.6000 0001249  87.6160 272.4975 15.08839676 97001,6917.881,95.438,540.61,538.882,0.0
51746.0,STARLINK-3502,PAYLOAD,2023-11-21 17:16:31,15.08844036,0.0001288,53.2161,115.4109,88.3675,271.7464,3.4982e-05,2.69e-06,0.0,0 STARLINK-3502,1 51746U 22016AJ  23325.71980927  .00000269  00000-0  34982-4 0  9999,2 51746  53.2161 115.4109 0001288  88.3675 271.7464 15.08844036 97040,6917.868,95.437,540.624,538.842,0.0
51746.0,STARLINK-3502,PAYLOAD,2023-11-22 13:56:32,15.08839151,0.0001269,53.2167,111.5458,91.1314,268.9823,6.919e-05,8.13e-06,0.0,0 STARLINK-3502,1 51746U 22016AJ  23326.58093183  .00000813  00000-0  69190-4 0  9998,2 51746  53.2167 111.5458 0001269  91.1314 268.9823 15.08839151 97174,6917.883,95.438,540.626,538.87,0.0
51746.0,STARLINK-3502,PAYLOAD,2023-11-22 17:07:18,15.08841629,0.0001285,53.2166,110.9507,89.5182,270.5958,0.00012725,1.738e-05,0.0,0 STARLINK-3502,1 51746U 22016AJ  23326.71340868  .00001738  00000-0  12725-3 0  9996,2 51746  53.2166 110.9507 0001285  89.5182 270.5958 15.08841629 97196,6917.875,95.437,540.629,538.851,0.0
